{"type": "FeatureCollection", "features": [ {"type": "Feature", "properties": {"norad_id": 67081, "name": "STARLINK-35864", "group": "last-30-days", "lat": 11.683155497519232, "lon": -134.42006058612398, "alt_km": 306.67337099921315, "timestamp": "2025-12-22T20:43:44.568937+00:00", "meta": {"OBJECT_NAME": "STARLINK-35864", "OBJECT_ID": "2025-298G", "EPOCH": "2025-12-22T14:00:01.999872", "MEAN_MOTION": 15.8877952, "ECCENTRICITY": 0.00041192, "INCLINATION": 69.9974, "RA_OF_ASC_NODE": 222.07, "ARG_OF_PERICENTER": 272.5084, "MEAN_ANOMALY": 296.9125, "EPHEMERIS_TYPE": 0, "CLASSIFICATION_TYPE": "U", "NORAD_CAT_ID": 67081, "ELEMENT_SET_NO": 999, "REV_AT_EPOCH": 256, "BSTAR": 0.00092196527, "MEAN_MOTION_DOT": 0.00268162, "MEAN_MOTION_DDOT": 0}, "tle": {"line1": "1 67081U 25298G   25356.58335648  .00268162  00000+0  92197-3 0  9996", "line2": "2 67081  69.9974 222.0700 0004119 272.5084 296.9125 15.88779520  2563"}}, "geometry": {"type": "Point", "coordinates": [-134.42006058612398, 11.683155497519232]}}, {"type": "Feature", "properties": {"norad_id": 67082, "name": "STARLINK-36035", "group": "last-30-days", "lat": 13.628130097515607, "lon": -133.67574115160065, "alt_km": 306.7651803513045, "timestamp": "2025-12-22T20:43:44.568947+00:00", "meta": {"OBJECT_NAME": "STARLINK-36035", "OBJECT_ID": "2025-298H", "EPOCH": "2025-12-22T14:00:01.999872", "MEAN_MOTION": 15.88933058, "ECCENTRICITY": 0.00046157, "INCLINATION": 69.9974, "RA_OF_ASC_NODE": 222.0676, "ARG_OF_PERICENTER": 264.2356, "MEAN_ANOMALY": 307.1436, "EPHEMERIS_TYPE": 0, "CLASSIFICATION_TYPE": "U", "NORAD_CAT_ID": 67082, "ELEMENT_SET_NO": 999, "REV_AT_EPOCH": 256, "BSTAR": 0.00041165584, "MEAN_MOTION_DOT": 0.00118523, "MEAN_MOTION_DDOT": 0}, "tle": {"line1": "1 67082U 25298H   25356.58335648  .00118523  00000+0  41166-3 0  9992", "line2": "2 67082  69.9974 222.0676 0004615 264.2356 307.1436 15.88933058  2565"}}, "geometry": {"type": "Point", "coordinates": [-133.67574115160065, 13.628130097515607]}}, {"type": "Feature", "properties": {"norad_id": 67083, "name": "STARLINK-36170", "group": "last-30-days", "lat": 15.618625300395763, "lon": -132.9003294659749, "alt_km": 306.4611369427612, "timestamp": "2025-12-22T20:43:44.568962+00:00", "meta": {"OBJECT_NAME": "STARLINK-36170", "OBJECT_ID": "2025-298J", "EPOCH": "2025-12-22T14:00:01.999872", "MEAN_MOTION": 15.88981127, "ECCENTRICITY": 0.00046542, "INCLINATION": 69.9972, "RA_OF_ASC_NODE": 222.0649, "ARG_OF_PERICENTER": 264.1941, "MEAN_ANOMALY": 309.267, "EPHEMERIS_TYPE": 0, "CLASSIFICATION_TYPE": "U", "NORAD_CAT_ID": 67083, "ELEMENT_SET_NO": 999, "REV_AT_EPOCH": 256, "BSTAR": 0.00036703571, "MEAN_MOTION_DOT": 0.00103575, "MEAN_MOTION_DDOT": 7.689642e-06}, "tle": {"line1": "1 67083U 25298J   25356.58335648  .00103575  76896-5  36704-3 0  9998", "line2": "2 67083  69.9972 222.0649 0004654 264.1941 309.2670 15.88981127  2569"}}, "geometry": {"type": "Point", "coordinates": [-132.9003294659749, 15.618625300395763]}}, {"type": "Feature", "properties": {"norad_id": 67084, "name": "STARLINK-36166", "group": "last-30-days", "lat": 17.491185708617337, "lon": -132.15599835986225, "alt_km": 306.0664092342022, "timestamp": "2025-12-22T20:43:44.568974+00:00", "meta": {"OBJECT_NAME": "STARLINK-36166", "OBJECT_ID": "2025-298K", "EPOCH": "2025-12-22T14:00:01.999872", "MEAN_MOTION": 15.89040648, "ECCENTRICITY": 0.00046471, "INCLINATION": 69.9973, "RA_OF_ASC_NODE": 222.0624, "ARG_OF_PERICENTER": 265.6669, "MEAN_ANOMALY": 309.7449, "EPHEMERIS_TYPE": 0, "CLASSIFICATION_TYPE": "U", "NORAD_CAT_ID": 67084, "ELEMENT_SET_NO": 999, "REV_AT_EPOCH": 250, "BSTAR": 0.00027515112, "MEAN_MOTION_DOT": 0.00077572, "MEAN_MOTION_DDOT": 6.034339e-06}, "tle": {"line1": "1 67084U 25298K   25356.58335648  .00077572  60343-5  27515-3 0  9996", "line2": "2 67084  69.9973 222.0624 0004647 265.6669 309.7449 15.89040648  2507"}}, "geometry": {"type": "Point", "coordinates": [-132.15599835986225, 17.491185708617337]}}, {"type": "Feature", "properties": {"norad_id": 67085, "name": "STARLINK-35794", "group": "last-30-days", "lat": 19.374001226566577, "lon": -131.3904277683405, "alt_km": 305.8766671742733, "timestamp": "2025-12-22T20:43:44.568987+00:00", "meta": {"OBJECT_NAME": "STARLINK-35794", "OBJECT_ID": "2025-298L", "EPOCH": "2025-12-22T14:00:01.999872", "MEAN_MOTION": 15.89166335, "ECCENTRICITY": 0.00047708, "INCLINATION": 69.9973, "RA_OF_ASC_NODE": 222.0602, "ARG_OF_PERICENTER": 263.955, "MEAN_ANOMALY": 313.3912, "EPHEMERIS_TYPE": 0, "CLASSIFICATION_TYPE": "U", "NORAD_CAT_ID": 67085, "ELEMENT_SET_NO": 999, "REV_AT_EPOCH": 256, "BSTAR": -0.0002662539, "MEAN_MOTION_DOT": -0.00077977, "MEAN_MOTION_DDOT": 5.87218e-06}, "tle": {"line1": "1 67085U 25298L   25356.58335648 -.00077977  58722-5 -26625-3 0  9997", "line2": "2 67085  69.9973 222.0602 0004770 263.9550 313.3912 15.89166335  2565"}}, "geometry": {"type": "Point", "coordinates": [-131.3904277683405, 19.374001226566577]}}, {"type": "Feature", "properties": {"norad_id": 67086, "name": "STARLINK-35841", "group": "last-30-days", "lat": 21.422357615126565, "lon": -130.53558477860153, "alt_km": 305.5140961006773, "timestamp": "2025-12-22T20:43:44.568997+00:00", "meta": {"OBJECT_NAME": "STARLINK-35841", "OBJECT_ID": "2025-298M", "EPOCH": "2025-12-22T14:00:01.999872", "MEAN_MOTION": 15.89172246, "ECCENTRICITY": 0.00046264, "INCLINATION": 69.9972, "RA_OF_ASC_NODE": 222.0576, "ARG_OF_PERICENTER": 263.2655, "MEAN_ANOMALY": 316.2555, "EPHEMERIS_TYPE": 0, "CLASSIFICATION_TYPE": "U", "NORAD_CAT_ID": 67086, "ELEMENT_SET_NO": 999, "REV_AT_EPOCH": 256, "BSTAR": -1.6606559e-05, "MEAN_MOTION_DOT": -6.022e-05, "MEAN_MOTION_DDOT": 3.909719e-06}, "tle": {"line1": "1 67086U 25298M   25356.58335648 -.00006022  39097-5 -16607-4 0  9995", "line2": "2 67086  69.9972 222.0576 0004626 263.2655 316.2555 15.89172246  2567"}}, "geometry": {"type": "Point", "coordinates": [-130.53558477860153, 21.422357615126565]}}, {"type": "Feature", "properties": {"norad_id": 67087, "name": "STARLINK-35842", "group": "last-30-days", "lat": 23.062569395951794, "lon": -129.8324055372254, "alt_km": 304.88525047268377, "timestamp": "2025-12-22T20:43:44.569007+00:00", "meta": {"OBJECT_NAME": "STARLINK-35842", "OBJECT_ID": "2025-298N", "EPOCH": "2025-12-22T14:00:01.999872", "MEAN_MOTION": 15.89249035, "ECCENTRICITY": 0.00046244, "INCLINATION": 69.9971, "RA_OF_ASC_NODE": 222.0554, "ARG_OF_PERICENTER": 269.9829, "MEAN_ANOMALY": 311.2383, "EPHEMERIS_TYPE": 0, "CLASSIFICATION_TYPE": "U", "NORAD_CAT_ID": 67087, "ELEMENT_SET_NO": 999, "REV_AT_EPOCH": 256, "BSTAR": -0.00021420276, "MEAN_MOTION_DOT": -0.00063227, "MEAN_MOTION_DDOT": 5.192902e-06}, "tle": {"line1": "1 67087U 25298N   25356.58335648 -.00063227  51929-5 -21420-3 0  9992", "line2": "2 67087  69.9971 222.0554 0004624 269.9829 311.2383 15.89249035  2562"}}, "geometry": {"type": "Point", "coordinates": [-129.8324055372254, 23.062569395951794]}}, {"type": "Feature", "properties": {"norad_id": 67088, "name": "STARLINK-35882", "group": "last-30-days", "lat": 25.06554950587663, "lon": -128.94770136312778, "alt_km": 304.55320632754683, "timestamp": "2025-12-22T20:43:44.569018+00:00", "meta": {"OBJECT_NAME": "STARLINK-35882", "OBJECT_ID": "2025-298P", "EPOCH": "2025-12-22T14:00:01.999872", "MEAN_MOTION": 15.89323352, "ECCENTRICITY": 0.00037224, "INCLINATION": 69.9973, "RA_OF_ASC_NODE": 222.0531, "ARG_OF_PERICENTER": 262.0652, "MEAN_ANOMALY": 321.2672, "EPHEMERIS_TYPE": 0, "CLASSIFICATION_TYPE": "U", "NORAD_CAT_ID": 67088, "ELEMENT_SET_NO": 999, "REV_AT_EPOCH": 256, "BSTAR": -0.00039356886, "MEAN_MOTION_DOT": -0.0011552, "MEAN_MOTION_DDOT": 8.251385e-06}, "tle": {"line1": "1 67088U 25298P   25356.58335648 -.00115520  82514-5 -39357-3 0  9999", "line2": "2 67088  69.9973 222.0531 0003722 262.0652 321.2672 15.89323352  2563"}}, "geometry": {"type": "Point", "coordinates": [-128.94770136312778, 25.06554950587663]}}, {"type": "Feature", "properties": {"norad_id": 67089, "name": "STARLINK-35763", "group": "last-30-days", "lat": 27.13012877671664, "lon": -128.00259190806295, "alt_km": 304.13519199313305, "timestamp": "2025-12-22T20:43:44.569028+00:00", "meta": {"OBJECT_NAME": "STARLINK-35763", "OBJECT_ID": "2025-298Q", "EPOCH": "2025-12-22T14:00:01.999872", "MEAN_MOTION": 15.89374618, "ECCENTRICITY": 0.00038019, "INCLINATION": 69.9972, "RA_OF_ASC_NODE": 222.0502, "ARG_OF_PERICENTER": 265.8733, "MEAN_ANOMALY": 319.6531, "EPHEMERIS_TYPE": 0, "CLASSIFICATION_TYPE": "U", "NORAD_CAT_ID": 67089, "ELEMENT_SET_NO": 999, "REV_AT_EPOCH": 256, "BSTAR": -0.0005927187, "MEAN_MOTION_DOT": -0.00173785, "MEAN_MOTION_DDOT": 1.3721971e-05}, "tle": {"line1": "1 67089U 25298Q   25356.58335648 -.00173785  13722-4 -59272-3 0  9999", "line2": "2 67089  69.9972 222.0502 0003801 265.8733 319.6531 15.89374618  2566"}}, "geometry": {"type": "Point", "coordinates": [-128.00259190806295, 27.13012877671664]}}, {"type": "Feature", "properties": {"norad_id": 67090, "name": "STARLINK-36060", "group": "last-30-days", "lat": 28.829878714703348, "lon": -127.19530091233449, "alt_km": 304.0031160453291, "timestamp": "2025-12-22T20:43:44.569038+00:00", "meta": {"OBJECT_NAME": "STARLINK-36060", "OBJECT_ID": "2025-298R", "EPOCH": "2025-12-22T14:00:01.999872", "MEAN_MOTION": 15.89487071, "ECCENTRICITY": 0.00041824, "INCLINATION": 69.9969, "RA_OF_ASC_NODE": 222.048, "ARG_OF_PERICENTER": 264.5678, "MEAN_ANOMALY": 322.7205, "EPHEMERIS_TYPE": 0, "CLASSIFICATION_TYPE": "U", "NORAD_CAT_ID": 67090, "ELEMENT_SET_NO": 999, "REV_AT_EPOCH": 250, "BSTAR": -0.0010223331, "MEAN_MOTION_DOT": -0.00300502, "MEAN_MOTION_DDOT": 3.2849865e-05}, "tle": {"line1": "1 67090U 25298R   25356.58335648 -.00300502  32850-4 -10223-2 0  9995", "line2": "2 67090  69.9969 222.0480 0004182 264.5678 322.7205 15.89487071  2501"}}, "geometry": {"type": "Point", "coordinates": [-127.19530091233449, 28.829878714703348]}}]}